{
    "links": {
        "self": "http://www.neowsapp.com/rest/v1/neo/3648629?api_key=iIulBulltgU6a56xZRHN4H3l9WmuAYTsLGpBGhQ2"
    },
    "id": "3648629",
    "neo_reference_id": "3648629",
    "name": "(2013 SC20)",
    "designation": "2013 SC20",
    "nasa_jpl_url": "http://ssd.jpl.nasa.gov/sbdb.cgi?sstr=3648629",
    "absolute_magnitude_h": 22.5,
    "estimated_diameter": {
        "kilometers": {
            "estimated_diameter_min": 0.0840533402,
            "estimated_diameter_max": 0.1879489824
        },
        "meters": {
            "estimated_diameter_min": 84.0533402073,
            "estimated_diameter_max": 187.9489824394
        },
        "miles": {
            "estimated_diameter_min": 0.0522283081,
            "estimated_diameter_max": 0.1167860472
        },
        "feet": {
            "estimated_diameter_min": 275.7655606856,
            "estimated_diameter_max": 616.6305395464
        }
    },
    "is_potentially_hazardous_asteroid": false,
    "close_approach_data": [
        {
            "close_approach_date": "2003-10-20",
            "close_approach_date_full": "2003-Oct-20 04:05",
            "epoch_date_close_approach": 1066622700000,
            "relative_velocity": {
                "kilometers_per_second": "9.842939936",
                "kilometers_per_hour": "35434.5837695102",
                "miles_per_hour": "22017.6723427826"
            },
            "miss_distance": {
                "astronomical": "0.095199292",
                "lunar": "37.032524588",
                "kilometers": "14241611.30870804",
                "miles": "8849326.918489352"
            },
            "orbiting_body": "Mars"
        },
        {
            "close_approach_date": "2008-09-06",
            "close_approach_date_full": "2008-Sep-06 20:28",
            "epoch_date_close_approach": 1220732880000,
            "relative_velocity": {
                "kilometers_per_second": "10.0112186051",
                "kilometers_per_hour": "36040.3869783953",
                "miles_per_hour": "22394.0948977701"
            },
            "miss_distance": {
                "astronomical": "0.2965747671",
                "lunar": "115.3675844019",
                "kilometers": "44366953.453906077",
                "miles": "27568346.5150427826"
            },
            "orbiting_body": "Earth"
        },
        {
            "close_approach_date": "2013-09-14",
            "close_approach_date_full": "2013-Sep-14 17:37",
            "epoch_date_close_approach": 1379180220000,
            "relative_velocity": {
                "kilometers_per_second": "9.9851302442",
                "kilometers_per_hour": "35946.4688790317",
                "miles_per_hour": "22335.7378431961"
            },
            "miss_distance": {
                "astronomical": "0.3018667004",
                "lunar": "117.4261464556",
                "kilometers": "45158615.403768148",
                "miles": "28060262.4402425224"
            },
            "orbiting_body": "Earth"
        }
    ],
    "orbital_data": {
        "orbit_id": "7",
        "orbit_determination_date": "2017-04-06 08:44:33",
        "first_observation_date": "2013-09-25",
        "last_observation_date": "2013-10-13",
        "data_arc_in_days": 18,
        "observations_used": 32,
        "orbit_uncertainty": "7",
        "minimum_orbit_intersection": ".294721",
        "jupiter_tisserand_invariant": "4.686",
        "epoch_osculation": "2459000.5",
        "eccentricity": ".1155169964400483",
        "semi_major_axis": "1.401136355823841",
        "inclination": "19.47300615296431",
        "ascending_node_longitude": "180.4949152269731",
        "orbital_period": "605.7857175984851",
        "perihelion_distance": "1.239281292396116",
        "perihelion_argument": "116.2280637165743",
        "aphelion_distance": "1.562991419251566",
        "perihelion_time": "2458895.437617544859",
        "mean_anomaly": "62.43537373873787",
        "mean_motion": ".594269540436092",
        "equinox": "J2000",
        "orbit_class": {
            "orbit_class_type": "AMO",
            "orbit_class_description": "Near-Earth asteroid orbits similar to that of 1221 Amor",
            "orbit_class_range": "1.017 AU < q (perihelion) < 1.3 AU"
        }
    },
    "is_sentry_object": false
}